{"type": "FeatureCollection", "features": [ {"type": "Feature", "properties": {"norad_id": 31552, "name": "FENGYUN 1C DEB", "group": "fengyun-1c-debris", "lat": -41.888663507815416, "lon": 117.93776086422932, "alt_km": 714.1519566311699, "timestamp": "2025-12-14T05:42:18.743570+00:00", "meta": {"OBJECT_NAME": "FENGYUN 1C DEB", "OBJECT_ID": "1999-025BYT", "EPOCH": "2025-12-12T19:01:01.618176", "MEAN_MOTION": 14.45689233, "ECCENTRICITY": 0.0085566, "INCLINATION": 98.6209, "RA_OF_ASC_NODE": 108.6493, "ARG_OF_PERICENTER": 20.6356, "MEAN_ANOMALY": 339.8256, "EPHEMERIS_TYPE": 0, "CLASSIFICATION_TYPE": "U", "NORAD_CAT_ID": 31552, "ELEMENT_SET_NO": 999, "REV_AT_EPOCH": 95877, "BSTAR": 0.0039948071, "MEAN_MOTION_DOT": 0.00014774, "MEAN_MOTION_DDOT": 0}, "tle": {"line1": "1 31552U 99025BYT 25346.79237984  .00014774  00000+0  39948-2 0  9997", "line2": "2 31552  98.6209 108.6493 0085566  20.6356 339.8256 14.45689233958772"}}, "geometry": {"type": "Point", "coordinates": [117.93776086422932, -41.888663507815416]}}, {"type": "Feature", "properties": {"norad_id": 31553, "name": "FENGYUN 1C DEB", "group": "fengyun-1c-debris", "lat": 35.59652712311459, "lon": -130.44288774201388, "alt_km": 773.6192463630459, "timestamp": "2025-12-14T05:42:18.743580+00:00", "meta": {"OBJECT_NAME": "FENGYUN 1C DEB", "OBJECT_ID": "1999-025BYU", "EPOCH": "2025-12-13T02:18:50.758848", "MEAN_MOTION": 14.30162674, "ECCENTRICITY": 0.00300561, "INCLINATION": 99.0034, "RA_OF_ASC_NODE": 41.8602, "ARG_OF_PERICENTER": 101.2621, "MEAN_ANOMALY": 289.513, "EPHEMERIS_TYPE": 0, "CLASSIFICATION_TYPE": "U", "NORAD_CAT_ID": 31553, "ELEMENT_SET_NO": 999, "REV_AT_EPOCH": 95915, "BSTAR": 0.0024976853, "MEAN_MOTION_DOT": 6.454e-05, "MEAN_MOTION_DDOT": 0}, "tle": {"line1": "1 31553U 99025BYU 25347.09642082  .00006454  00000+0  24977-2 0  9993", "line2": "2 31553  99.0034  41.8602 0030056 101.2621 289.5130 14.30162674959153"}}, "geometry": {"type": "Point", "coordinates": [-130.44288774201388, 35.59652712311459]}}, {"type": "Feature", "properties": {"norad_id": 31555, "name": "FENGYUN 1C DEB", "group": "fengyun-1c-debris", "lat": -18.210590357753752, "lon": -54.490378867263104, "alt_km": 843.7199457545175, "timestamp": "2025-12-14T05:42:18.743591+00:00", "meta": {"OBJECT_NAME": "FENGYUN 1C DEB", "OBJECT_ID": "1999-025BYW", "EPOCH": "2025-12-07T02:31:39.558144", "MEAN_MOTION": 14.44158663, "ECCENTRICITY": 0.01545207, "INCLINATION": 99.1039, "RA_OF_ASC_NODE": 294.8535, "ARG_OF_PERICENTER": 213.2009, "MEAN_ANOMALY": 145.9411, "EPHEMERIS_TYPE": 0, "CLASSIFICATION_TYPE": "U", "NORAD_CAT_ID": 31555, "ELEMENT_SET_NO": 999, "REV_AT_EPOCH": 96482, "BSTAR": 0.0022170192, "MEAN_MOTION_DOT": 8.749e-05, "MEAN_MOTION_DDOT": 0}, "tle": {"line1": "1 31555U 99025BYW 25341.10531896  .00008749  00000+0  22170-2 0  9993", "line2": "2 31555  99.1039 294.8535 0154520 213.2009 145.9411 14.44158663964828"}}, "geometry": {"type": "Point", "coordinates": [-54.490378867263104, -18.210590357753752]}}, {"type": "Feature", "properties": {"norad_id": 31558, "name": "FENGYUN 1C DEB", "group": "fengyun-1c-debris", "lat": -51.378749423637856, "lon": 52.49315377611855, "alt_km": 633.463005765243, "timestamp": "2025-12-14T05:42:18.743601+00:00", "meta": {"OBJECT_NAME": "FENGYUN 1C DEB", "OBJECT_ID": "1999-025BYZ", "EPOCH": "2025-12-12T22:51:49.171680", "MEAN_MOTION": 14.38702039, "ECCENTRICITY": 0.02107079, "INCLINATION": 98.7905, "RA_OF_ASC_NODE": 242.3445, "ARG_OF_PERICENTER": 261.6386, "MEAN_ANOMALY": 159.5836, "EPHEMERIS_TYPE": 0, "CLASSIFICATION_TYPE": "U", "NORAD_CAT_ID": 31558, "ELEMENT_SET_NO": 999, "REV_AT_EPOCH": 97438, "BSTAR": 0.00046260494, "MEAN_MOTION_DOT": 1.781e-05, "MEAN_MOTION_DDOT": 0}, "tle": {"line1": "1 31558U 99025BYZ 25346.95265245  .00001781  00000+0  46260-3 0  9992", "line2": "2 31558  98.7905 242.3445 0210707 261.6386 159.5836 14.38702039974380"}}, "geometry": {"type": "Point", "coordinates": [52.49315377611855, -51.378749423637856]}}, {"type": "Feature", "properties": {"norad_id": 31559, "name": "FENGYUN 1C DEB", "group": "fengyun-1c-debris", "lat": -51.35210623229802, "lon": 111.20324991268171, "alt_km": 660.4656545014104, "timestamp": "2025-12-14T05:42:18.743612+00:00", "meta": {"OBJECT_NAME": "FENGYUN 1C DEB", "OBJECT_ID": "1999-025BZA", "EPOCH": "2025-12-12T09:02:40.847424", "MEAN_MOTION": 14.63565314, "ECCENTRICITY": 0.00541912, "INCLINATION": 98.8668, "RA_OF_ASC_NODE": 300.4604, "ARG_OF_PERICENTER": 194.689, "MEAN_ANOMALY": 318.0708, "EPHEMERIS_TYPE": 0, "CLASSIFICATION_TYPE": "U", "NORAD_CAT_ID": 31559, "ELEMENT_SET_NO": 999, "REV_AT_EPOCH": 97551, "BSTAR": 0.002281435, "MEAN_MOTION_DOT": 0.00012057, "MEAN_MOTION_DDOT": 0}, "tle": {"line1": "1 31559U 99025BZA 25346.37686166  .00012057  00000+0  22814-2 0  9994", "line2": "2 31559  98.8668 300.4604 0054191 194.6890 318.0708 14.63565314975516"}}, "geometry": {"type": "Point", "coordinates": [111.20324991268171, -51.35210623229802]}}, {"type": "Feature", "properties": {"norad_id": 31560, "name": "FENGYUN 1C DEB", "group": "fengyun-1c-debris", "lat": -46.03203566737504, "lon": 33.32484781645133, "alt_km": 742.6986121348464, "timestamp": "2025-12-14T05:42:18.743622+00:00", "meta": {"OBJECT_NAME": "FENGYUN 1C DEB", "OBJECT_ID": "1999-025BZB", "EPOCH": "2025-12-13T07:57:18.362592", "MEAN_MOTION": 14.21222514, "ECCENTRICITY": 0.01199153, "INCLINATION": 98.5891, "RA_OF_ASC_NODE": 23.4289, "ARG_OF_PERICENTER": 306.7307, "MEAN_ANOMALY": 52.2904, "EPHEMERIS_TYPE": 0, "CLASSIFICATION_TYPE": "U", "NORAD_CAT_ID": 31560, "ELEMENT_SET_NO": 999, "REV_AT_EPOCH": 96627, "BSTAR": 9.057041e-05, "MEAN_MOTION_DOT": 1.68e-06, "MEAN_MOTION_DDOT": 0}, "tle": {"line1": "1 31560U 99025BZB 25347.33146253  .00000168  00000+0  90570-4 0  9997", "line2": "2 31560  98.5891  23.4289 0119915 306.7307  52.2904 14.21222514966273"}}, "geometry": {"type": "Point", "coordinates": [33.32484781645133, -46.03203566737504]}}, {"type": "Feature", "properties": {"norad_id": 31561, "name": "FENGYUN 1C DEB", "group": "fengyun-1c-debris", "lat": -40.85344366236207, "lon": 156.5917217092704, "alt_km": 860.4780714352846, "timestamp": "2025-12-14T05:42:18.743632+00:00", "meta": {"OBJECT_NAME": "FENGYUN 1C DEB", "OBJECT_ID": "1999-025BZC", "EPOCH": "2025-12-13T06:28:13.493568", "MEAN_MOTION": 14.02770774, "ECCENTRICITY": 0.00564295, "INCLINATION": 98.7176, "RA_OF_ASC_NODE": 343.2899, "ARG_OF_PERICENTER": 181.3367, "MEAN_ANOMALY": 193.3118, "EPHEMERIS_TYPE": 0, "CLASSIFICATION_TYPE": "U", "NORAD_CAT_ID": 31561, "ELEMENT_SET_NO": 999, "REV_AT_EPOCH": 95186, "BSTAR": 0.00063431089, "MEAN_MOTION_DOT": 9.53e-06, "MEAN_MOTION_DDOT": 0}, "tle": {"line1": "1 31561U 99025BZC 25347.26960062  .00000953  00000+0  63431-3 0  9999", "line2": "2 31561  98.7176 343.2899 0056429 181.3367 193.3118 14.02770774951863"}}, "geometry": {"type": "Point", "coordinates": [156.5917217092704, -40.85344366236207]}}, {"type": "Feature", "properties": {"norad_id": 31562, "name": "FENGYUN 1C DEB", "group": "fengyun-1c-debris", "lat": -79.56989821383135, "lon": -157.7087436252691, "alt_km": 718.3265255138876, "timestamp": "2025-12-14T05:42:18.743642+00:00", "meta": {"OBJECT_NAME": "FENGYUN 1C DEB", "OBJECT_ID": "1999-025BZD", "EPOCH": "2025-12-13T05:07:06.349152", "MEAN_MOTION": 14.42070713, "ECCENTRICITY": 0.00570889, "INCLINATION": 99.2577, "RA_OF_ASC_NODE": 138.7983, "ARG_OF_PERICENTER": 281.8572, "MEAN_ANOMALY": 77.6216, "EPHEMERIS_TYPE": 0, "CLASSIFICATION_TYPE": "U", "NORAD_CAT_ID": 31562, "ELEMENT_SET_NO": 999, "REV_AT_EPOCH": 96997, "BSTAR": 0.0015688038, "MEAN_MOTION_DOT": 5.207e-05, "MEAN_MOTION_DDOT": 0}, "tle": {"line1": "1 31562U 99025BZD 25347.21326793  .00005207  00000+0  15688-2 0  9999", "line2": "2 31562  99.2577 138.7983 0057088 281.8572  77.6216 14.42070713969976"}}, "geometry": {"type": "Point", "coordinates": [-157.7087436252691, -79.56989821383135]}}, {"type": "Feature", "properties": {"norad_id": 31563, "name": "FENGYUN 1C DEB", "group": "fengyun-1c-debris", "lat": 70.70573275041552, "lon": 115.10070853615075, "alt_km": 588.8185139451871, "timestamp": "2025-12-14T05:42:18.743653+00:00", "meta": {"OBJECT_NAME": "FENGYUN 1C DEB", "OBJECT_ID": "1999-025BZE", "EPOCH": "2025-12-12T09:07:51.975552", "MEAN_MOTION": 14.65297703, "ECCENTRICITY": 0.01139614, "INCLINATION": 98.9513, "RA_OF_ASC_NODE": 139.8381, "ARG_OF_PERICENTER": 80.0148, "MEAN_ANOMALY": 281.3891, "EPHEMERIS_TYPE": 0, "CLASSIFICATION_TYPE": "U", "NORAD_CAT_ID": 31563, "ELEMENT_SET_NO": 999, "REV_AT_EPOCH": 98539, "BSTAR": 0.00091970882, "MEAN_MOTION_DOT": 5.401e-05, "MEAN_MOTION_DDOT": 0}, "tle": {"line1": "1 31563U 99025BZE 25346.38046268  .00005401  00000+0  91971-3 0  9999", "line2": "2 31563  98.9513 139.8381 0113961  80.0148 281.3891 14.65297703985390"}}, "geometry": {"type": "Point", "coordinates": [115.10070853615075, 70.70573275041552]}}, {"type": "Feature", "properties": {"norad_id": 31565, "name": "FENGYUN 1C DEB", "group": "fengyun-1c-debris", "lat": -49.04028718602544, "lon": 28.120228759469114, "alt_km": 802.1536115807776, "timestamp": "2025-12-14T05:42:18.743663+00:00", "meta": {"OBJECT_NAME": "FENGYUN 1C DEB", "OBJECT_ID": "1999-025BZG", "EPOCH": "2025-11-29T09:07:25.735008", "MEAN_MOTION": 14.38541647, "ECCENTRICITY": 0.00553237, "INCLINATION": 100.7173, "RA_OF_ASC_NODE": 202.2097, "ARG_OF_PERICENTER": 58.3475, "MEAN_ANOMALY": 302.3085, "EPHEMERIS_TYPE": 0, "CLASSIFICATION_TYPE": "U", "NORAD_CAT_ID": 31565, "ELEMENT_SET_NO": 999, "REV_AT_EPOCH": 64161, "BSTAR": 0.0030186467, "MEAN_MOTION_DOT": 9.348e-05, "MEAN_MOTION_DDOT": 0}, "tle": {"line1": "1 31565U 99025BZG 25333.38015897  .00009348  00000+0  30186-2 0  9995", "line2": "2 31565 100.7173 202.2097 0055323  58.3475 302.3085 14.38541647641615"}}, "geometry": {"type": "Point", "coordinates": [28.120228759469114, -49.04028718602544]}}]}